GPS BIIF-8              
1 40294U 14068A   17346.28475601  .00000083  00000-0  00000+0 0  9992
2 40294  55.0309 153.4140 0010435  23.4092 336.6476  2.00571926 22836
